LEMUR-2-FURIAUS         
1 42840U 17042R   26068.96143223  .00025928  00000+0  99966-3 0  9991
2 42840  97.3753 248.4990 0007537  55.8686 304.3266 15.26272951473053
STARLINK-34279          
1 64389U 25127V   26068.37571400  .00026920  00000+0  98425-3 0  9995
2 64389  43.0024 182.0264 0001092 240.6814 119.3928 15.27578353 42415
