[{"OBJECT_NAME":"LEMUR-2-FURIAUS","OBJECT_ID":"2017-042R","EPOCH":"2026-03-09T23:04:27.745536","MEAN_MOTION":15.26272951,"ECCENTRICITY":0.00075374,"INCLINATION":97.3753,"RA_OF_ASC_NODE":248.499,"ARG_OF_PERICENTER":55.8686,"MEAN_ANOMALY":304.3266,"EPHEMERIS_TYPE":0,"CLASSIFICATION_TYPE":"U","NORAD_CAT_ID":42840,"ELEMENT_SET_NO":999,"REV_AT_EPOCH":47305,"BSTAR":0.00099966194,"MEAN_MOTION_DOT":0.00025928,"MEAN_MOTION_DDOT":0},{"OBJECT_NAME":"STARLINK-34279","OBJECT_ID":"2025-127V","EPOCH":"2026-03-09T09:01:01.689600","MEAN_MOTION":15.27578353,"ECCENTRICITY":0.00010928,"INCLINATION":43.0024,"RA_OF_ASC_NODE":182.0264,"ARG_OF_PERICENTER":240.6814,"MEAN_ANOMALY":119.3928,"EPHEMERIS_TYPE":0,"CLASSIFICATION_TYPE":"U","NORAD_CAT_ID":64389,"ELEMENT_SET_NO":999,"REV_AT_EPOCH":4241,"BSTAR":0.0009842521,"MEAN_MOTION_DOT":0.0002692,"MEAN_MOTION_DDOT":0}]
